{
    "links": {
        "self": "http://www.neowsapp.com/rest/v1/neo/3384482?api_key=iIulBulltgU6a56xZRHN4H3l9WmuAYTsLGpBGhQ2"
    },
    "id": "3384482",
    "neo_reference_id": "3384482",
    "name": "(2007 RW19)",
    "designation": "2007 RW19",
    "nasa_jpl_url": "http://ssd.jpl.nasa.gov/sbdb.cgi?sstr=3384482",
    "absolute_magnitude_h": 24.7,
    "estimated_diameter": {
        "kilometers": {
            "estimated_diameter_min": 0.0305179233,
            "estimated_diameter_max": 0.0682401509
        },
        "meters": {
            "estimated_diameter_min": 30.5179232594,
            "estimated_diameter_max": 68.2401509401
        },
        "miles": {
            "estimated_diameter_min": 0.0189629525,
            "estimated_diameter_max": 0.0424024508
        },
        "feet": {
            "estimated_diameter_min": 100.1244233463,
            "estimated_diameter_max": 223.8850168104
        }
    },
    "is_potentially_hazardous_asteroid": false,
    "close_approach_data": [
        {
            "close_approach_date": "1920-08-23",
            "close_approach_date_full": "1920-Aug-23 05:46",
            "epoch_date_close_approach": -1557598440000,
            "relative_velocity": {
                "kilometers_per_second": "21.7378684065",
                "kilometers_per_hour": "78256.3262633071",
                "miles_per_hour": "48625.4378384421"
            },
            "miss_distance": {
                "astronomical": "0.410908597",
                "lunar": "159.843444233",
                "kilometers": "61471050.87588839",
                "miles": "38196339.826464182"
            },
            "orbiting_body": "Earth"
        },
        {
            "close_approach_date": "1932-01-07",
            "close_approach_date_full": "1932-Jan-07 17:39",
            "epoch_date_close_approach": -1198650060000,
            "relative_velocity": {
                "kilometers_per_second": "17.415615887",
                "kilometers_per_hour": "62696.217193276",
                "miles_per_hour": "38956.9911776775"
            },
            "miss_distance": {
                "astronomical": "0.3206171744",
                "lunar": "124.7200808416",
                "kilometers": "47963646.375658528",
                "miles": "29803227.8637945664"
            },
            "orbiting_body": "Earth"
        },
        {
            "close_approach_date": "2007-09-20",
            "close_approach_date_full": "2007-Sep-20 15:35",
            "epoch_date_close_approach": 1190302500000,
            "relative_velocity": {
                "kilometers_per_second": "10.8018083638",
                "kilometers_per_hour": "38886.5101095356",
                "miles_per_hour": "24162.5651288945"
            },
            "miss_distance": {
                "astronomical": "0.0278492182",
                "lunar": "10.8333458798",
                "kilometers": "4166183.723885234",
                "miles": "2588746.5242508692"
            },
            "orbiting_body": "Earth"
        },
        {
            "close_approach_date": "2094-08-25",
            "close_approach_date_full": "2094-Aug-25 17:05",
            "epoch_date_close_approach": 3933594300000,
            "relative_velocity": {
                "kilometers_per_second": "21.4582197427",
                "kilometers_per_hour": "77249.5910735926",
                "miles_per_hour": "47999.8917423664"
            },
            "miss_distance": {
                "astronomical": "0.3986612859",
                "lunar": "155.0792402151",
                "kilometers": "59638879.222101033",
                "miles": "37057881.1518309354"
            },
            "orbiting_body": "Earth"
        }
    ],
    "orbital_data": {
        "orbit_id": "14",
        "orbit_determination_date": "2017-04-06 09:06:01",
        "first_observation_date": "2007-09-14",
        "last_observation_date": "2007-09-23",
        "data_arc_in_days": 9,
        "observations_used": 55,
        "orbit_uncertainty": "8",
        "minimum_orbit_intersection": ".0247113",
        "jupiter_tisserand_invariant": "4.049",
        "epoch_osculation": "2454359.5",
        "eccentricity": ".4609618438181073",
        "semi_major_axis": "1.708418107557192",
        "inclination": "9.574525246530438",
        "ascending_node_longitude": "351.8062131643578",
        "orbital_period": "815.6233973972609",
        "perihelion_distance": ".9209025466853874",
        "perihelion_argument": "52.68598028257976",
        "aphelion_distance": "2.495933668428997",
        "perihelion_time": "2454401.188139623364",
        "mean_anomaly": "341.5996815291196",
        "mean_motion": ".4413801776025522",
        "equinox": "J2000",
        "orbit_class": {
            "orbit_class_type": "APO",
            "orbit_class_description": "Near-Earth asteroid orbits which cross the Earth’s orbit similar to that of 1862 Apollo",
            "orbit_class_range": "a (semi-major axis) > 1.0 AU; q (perihelion) < 1.017 AU"
        }
    },
    "is_sentry_object": false
}